start=new Date('2023-03-17T00:00:00.000Z').valueOf();
sats=[{"OBJECT_NAME":"STARLINK-3394","APOAPSIS":"540.109","TLE_LINE1":"1 51118U 22005Q   23075.89626869 -.00003052  00000-0 -17395-3 0  9996","TIME_SYSTEM":"UTC","CLASSIFICATION_TYPE":"U","TLE_LINE2":"2 51118  53.2145 136.9036 0000390 139.2260 220.8762 15.08809281 65618","OBJECT_ID":"2022-005Q","REV_AT_EPOCH":"6561","BSTAR":"-0.00017395000000","SEMIMAJOR_AXIS":"6917.974","PERIAPSIS":"539.569","ECCENTRICITY":"0.00003900","ARG_OF_PERICENTER":"139.2260","REF_FRAME":"TEME","EPHEMERIS_TYPE":"0","MEAN_MOTION":"15.08809281","GP_ID":"228256815","NORAD_CAT_ID":"51118","RCS_SIZE":"LARGE","PERIOD":"95.439","EPOCH":"2023-03-16T21:30:37.614816","FILE":"3862446","CENTER_NAME":"EARTH","MEAN_MOTION_DDOT":"0.0000000000000","DECAY_DATE":null,"MEAN_ANOMALY":"220.8762","MEAN_ELEMENT_THEORY":"SGP4","ELEMENT_SET_NO":"999","RA_OF_ASC_NODE":"136.9036","LAUNCH_DATE":"2022-01-19","OBJECT_TYPE":"PAYLOAD","MEAN_MOTION_DOT":"-0.00003052","COUNTRY_CODE":"US","SITE":"AFETR","INCLINATION":"53.2145"},{"BSTAR":"0.00040411000000","REV_AT_EPOCH":"6450","PERIAPSIS":"539.389","SEMIMAJOR_AXIS":"6917.923","TLE_LINE1":"1 51119U 22005R   23075.87418515  .00006147  00000-0  40411-3 0  9993","OBJECT_NAME":"STARLINK-3390","APOAPSIS":"540.186","OBJECT_ID":"2022-005R","TLE_LINE2":"2 51119  53.2136 137.0018 0000576  92.0227 268.0831 15.08826146 64503","TIME_SYSTEM":"UTC","CLASSIFICATION_TYPE":"U","OBJECT_TYPE":"PAYLOAD","LAUNCH_DATE":"2022-01-19","RA_OF_ASC_NODE":"137.0018","MEAN_ELEMENT_THEORY":"SGP4","DECAY_DATE":null,"MEAN_ANOMALY":"268.0831","ELEMENT_SET_NO":"999","CENTER_NAME":"EARTH","MEAN_MOTION_DDOT":"0.0000000000000","INCLINATION":"53.2136","SITE":"AFETR","MEAN_MOTION_DOT":"0.00006147","COUNTRY_CODE":"US","MEAN_MOTION":"15.08826146","ECCENTRICITY":"0.00005760","REF_FRAME":"TEME","ARG_OF_PERICENTER":"92.0227","EPHEMERIS_TYPE":"0","FILE":"3862592","EPOCH":"2023-03-16T20:58:49.596960","PERIOD":"95.438","GP_ID":"228284612","RCS_SIZE":"LARGE","NORAD_CAT_ID":"51119"},{"PERIAPSIS":"538.804","SEMIMAJOR_AXIS":"6917.911","BSTAR":"0.00080774000000","REV_AT_EPOCH":"6450","OBJECT_ID":"2022-005S","TLE_LINE2":"2 51120  53.2144 137.0346 0001404  80.6446 279.4704 15.08830129 64506","TIME_SYSTEM":"UTC","CLASSIFICATION_TYPE":"U","TLE_LINE1":"1 51120U 22005S   23075.86682572  .00012587  00000-0  80774-3 0  9991","OBJECT_NAME":"STARLINK-3398","APOAPSIS":"540.747","INCLINATION":"53.2144","SITE":"AFETR","MEAN_MOTION_DOT":"0.00012587","COUNTRY_CODE":"US","OBJECT_TYPE":"PAYLOAD","LAUNCH_DATE":"2022-01-19","RA_OF_ASC_NODE":"137.0346","DECAY_DATE":null,"MEAN_ELEMENT_THEORY":"SGP4","ELEMENT_SET_NO":"999","MEAN_ANOMALY":"279.4704","CENTER_NAME":"EARTH","MEAN_MOTION_DDOT":"0.0000000000000","FILE":"3862592","EPOCH":"2023-03-16T20:48:13.742208","PERIOD":"95.438","GP_ID":"228282862","RCS_SIZE":"LARGE","NORAD_CAT_ID":"51120","MEAN_MOTION":"15.08830129","REF_FRAME":"TEME","ECCENTRICITY":"0.00014040","ARG_OF_PERICENTER":"80.6446","EPHEMERIS_TYPE":"0"},{"APOAPSIS":"540.353","OBJECT_NAME":"STARLINK-3399","TLE_LINE1":"1 51121U 22005T   23075.88154057 -.00006504  00000-0 -39111-3 0  9999","CLASSIFICATION_TYPE":"U","TIME_SYSTEM":"UTC","OBJECT_ID":"2022-005T","TLE_LINE2":"2 51121  53.2171 136.9726 0000812 222.6083 137.4846 15.08825005 65614","REV_AT_EPOCH":"6561","BSTAR":"-0.00039111000000","PERIAPSIS":"539.229","SEMIMAJOR_AXIS":"6917.926","MEAN_MOTION":"15.08825005","EPHEMERIS_TYPE":"0","ARG_OF_PERICENTER":"222.6083","REF_FRAME":"TEME","ECCENTRICITY":"0.00008120","EPOCH":"2023-03-16T21:09:25.105248","PERIOD":"95.439","NORAD_CAT_ID":"51121","RCS_SIZE":"LARGE","GP_ID":"228256945","FILE":"3862448","DECAY_DATE":null,"MEAN_ANOMALY":"137.4846","ELEMENT_SET_NO":"999","MEAN_ELEMENT_THEORY":"SGP4","MEAN_MOTION_DDOT":"0.0000000000000","CENTER_NAME":"EARTH","OBJECT_TYPE":"PAYLOAD","LAUNCH_DATE":"2022-01-19","RA_OF_ASC_NODE":"136.9726","MEAN_MOTION_DOT":"-0.00006504","COUNTRY_CODE":"US","INCLINATION":"53.2171","SITE":"AFETR"},{"COUNTRY_CODE":"US","MEAN_MOTION_DOT":"0.00007014","INCLINATION":"53.2137","SITE":"AFETR","DECAY_DATE":null,"ELEMENT_SET_NO":"999","MEAN_ELEMENT_THEORY":"SGP4","MEAN_ANOMALY":"263.8931","MEAN_MOTION_DDOT":"0.0000000000000","CENTER_NAME":"EARTH","OBJECT_TYPE":"PAYLOAD","LAUNCH_DATE":"2022-01-19","RA_OF_ASC_NODE":"137.0193","PERIOD":"95.438","EPOCH":"2023-03-16T20:53:31.699392","NORAD_CAT_ID":"51122","RCS_SIZE":"LARGE","GP_ID":"228256940","FILE":"3862448","MEAN_MOTION":"15.08825325","EPHEMERIS_TYPE":"0","ECCENTRICITY":"0.00009820","REF_FRAME":"TEME","ARG_OF_PERICENTER":"96.2173","PERIAPSIS":"539.111","SEMIMAJOR_AXIS":"6917.925","REV_AT_EPOCH":"6561","BSTAR":"0.00045853000000","CLASSIFICATION_TYPE":"U","TIME_SYSTEM":"UTC","OBJECT_ID":"2022-005U","TLE_LINE2":"2 51122  53.2137 137.0193 0000982  96.2173 263.8931 15.08825325 65614","APOAPSIS":"540.470","OBJECT_NAME":"STARLINK-3373","TLE_LINE1":"1 51122U 22005U   23075.87050578  .00007014  00000-0  45853-3 0  9997"},{"MEAN_MOTION_DOT":"-0.00000803","COUNTRY_CODE":"US","SITE":"AFETR","INCLINATION":"53.2146","MEAN_MOTION_DDOT":"0.0000000000000","CENTER_NAME":"EARTH","ELEMENT_SET_NO":"999","DECAY_DATE":null,"MEAN_ELEMENT_THEORY":"SGP4","MEAN_ANOMALY":"261.7626","LAUNCH_DATE":"2022-01-19","RA_OF_ASC_NODE":"138.2394","OBJECT_TYPE":"PAYLOAD","RCS_SIZE":"LARGE","NORAD_CAT_ID":"51123","GP_ID":"228284113","PERIOD":"95.437","EPOCH":"2023-03-16T14:21:22.817664","FILE":"3862592","EPHEMERIS_TYPE":"0","ARG_OF_PERICENTER":"98.3471","ECCENTRICITY":"0.00009330","REF_FRAME":"TEME","MEAN_MOTION":"15.08842449","SEMIMAJOR_AXIS":"6917.873","PERIAPSIS":"539.092","REV_AT_EPOCH":"6446","BSTAR":"-0.00003238800000","TIME_SYSTEM":"UTC","CLASSIFICATION_TYPE":"U","TLE_LINE2":"2 51123  53.2146 138.2394 0000933  98.3471 261.7626 15.08842449 64467","OBJECT_ID":"2022-005V","APOAPSIS":"540.383","OBJECT_NAME":"STARLINK-3392","TLE_LINE1":"1 51123U 22005V   23075.59818076 -.00000803  00000-0 -32388-4 0  9993"},{"MEAN_MOTION_DOT":"-0.00001279","COUNTRY_CODE":"US","INCLINATION":"53.2142","SITE":"AFETR","MEAN_ELEMENT_THEORY":"SGP4","DECAY_DATE":null,"MEAN_ANOMALY":"253.2317","ELEMENT_SET_NO":"999","MEAN_MOTION_DDOT":"0.0000000000000","CENTER_NAME":"EARTH","OBJECT_TYPE":"PAYLOAD","LAUNCH_DATE":"2022-01-19","RA_OF_ASC_NODE":"148.3455","EPOCH":"2023-03-16T13:48:15.415488","PERIOD":"95.437","NORAD_CAT_ID":"51124","RCS_SIZE":"LARGE","GP_ID":"228256896","FILE":"3862449","MEAN_MOTION":"15.08841280","EPHEMERIS_TYPE":"0","ECCENTRICITY":"0.00012320","REF_FRAME":"TEME","ARG_OF_PERICENTER":"106.8810","PERIAPSIS":"538.889","SEMIMAJOR_AXIS":"6917.876","REV_AT_EPOCH":"6543","BSTAR":"-0.00006227400000","TIME_SYSTEM":"UTC","CLASSIFICATION_TYPE":"U","OBJECT_ID":"2022-005W","TLE_LINE2":"2 51124  53.2142 148.3455 0001232 106.8810 253.2317 15.08841280 65432","APOAPSIS":"540.594","OBJECT_NAME":"STARLINK-3389","TLE_LINE1":"1 51124U 22005W   23075.57517842 -.00001279  00000-0 -62274-4 0  9994"},{"OBJECT_TYPE":"PAYLOAD","LAUNCH_DATE":"2022-01-19","RA_OF_ASC_NODE":"146.9113","MEAN_ANOMALY":"265.0736","DECAY_DATE":null,"ELEMENT_SET_NO":"999","MEAN_ELEMENT_THEORY":"SGP4","MEAN_MOTION_DDOT":"0.0000000000000","CENTER_NAME":"EARTH","INCLINATION":"53.2148","SITE":"AFETR","MEAN_MOTION_DOT":"-0.00006396","COUNTRY_CODE":"US","MEAN_MOTION":"15.08821941","EPHEMERIS_TYPE":"0","ECCENTRICITY":"0.00011260","REF_FRAME":"TEME","ARG_OF_PERICENTER":"95.0384","FILE":"3862449","PERIOD":"95.439","EPOCH":"2023-03-16T21:30:40.600800","NORAD_CAT_ID":"51125","RCS_SIZE":"LARGE","GP_ID":"228256952","BSTAR":"-0.00038434000000","REV_AT_EPOCH":"6547","PERIAPSIS":"539.022","SEMIMAJOR_AXIS":"6917.936","TLE_LINE1":"1 51125U 22005X   23075.89630325 -.00006396  00000-0 -38434-3 0  9997","APOAPSIS":"540.580","OBJECT_NAME":"STARLINK-3387","OBJECT_ID":"2022-005X","TLE_LINE2":"2 51125  53.2148 146.9113 0001126  95.0384 265.0736 15.08821941 65473","TIME_SYSTEM":"UTC","CLASSIFICATION_TYPE":"U"},{"SEMIMAJOR_AXIS":"6917.897","PERIAPSIS":"538.656","REV_AT_EPOCH":"6433","BSTAR":"-0.00022837000000","TIME_SYSTEM":"UTC","CLASSIFICATION_TYPE":"U","TLE_LINE2":"2 51126  53.2149 148.0684 0001600  79.4413 280.6760 15.08834434 64332","OBJECT_ID":"2022-005Y","OBJECT_NAME":"STARLINK-3386","APOAPSIS":"540.869","TLE_LINE1":"1 51126U 22005Y   23075.63869843 -.00003920  00000-0 -22837-3 0  9999","MEAN_MOTION_DOT":"-0.00003920","COUNTRY_CODE":"US","SITE":"AFETR","INCLINATION":"53.2149","CENTER_NAME":"EARTH","MEAN_MOTION_DDOT":"0.0000000000000","MEAN_ANOMALY":"280.6760","DECAY_DATE":null,"MEAN_ELEMENT_THEORY":"SGP4","ELEMENT_SET_NO":"999","RA_OF_ASC_NODE":"148.0684","LAUNCH_DATE":"2022-01-19","OBJECT_TYPE":"PAYLOAD","GP_ID":"228283864","RCS_SIZE":"LARGE","NORAD_CAT_ID":"51126","EPOCH":"2023-03-16T15:19:43.544352","PERIOD":"95.438","FILE":"3862592","REF_FRAME":"TEME","ECCENTRICITY":"0.00016000","ARG_OF_PERICENTER":"79.4413","EPHEMERIS_TYPE":"0","MEAN_MOTION":"15.08834434"},{"RCS_SIZE":"LARGE","NORAD_CAT_ID":"51127","GP_ID":"228284613","PERIOD":"95.438","EPOCH":"2023-03-16T21:34:35.887008","FILE":"3862592","EPHEMERIS_TYPE":"0","REF_FRAME":"TEME","ARG_OF_PERICENTER":"97.0875","ECCENTRICITY":"0.00017460","MEAN_MOTION":"15.08826180","COUNTRY_CODE":"US","MEAN_MOTION_DOT":"0.00015312","SITE":"AFETR","INCLINATION":"53.2143","MEAN_MOTION_DDOT":"0.0000000000000","CENTER_NAME":"EARTH","MEAN_ANOMALY":"263.0315","DECAY_DATE":null,"MEAN_ELEMENT_THEORY":"SGP4","ELEMENT_SET_NO":"999","LAUNCH_DATE":"2022-01-19","RA_OF_ASC_NODE":"146.8904","OBJECT_TYPE":"PAYLOAD","CLASSIFICATION_TYPE":"U","TIME_SYSTEM":"UTC","TLE_LINE2":"2 51127  53.2143 146.8904 0001746  97.0875 263.0315 15.08826180 64360","OBJECT_ID":"2022-005Z","APOAPSIS":"540.996","OBJECT_NAME":"STARLINK-3370","TLE_LINE1":"1 51127U 22005Z   23075.89902647  .00015312  00000-0  97845-3 0  9995","SEMIMAJOR_AXIS":"6917.923","PERIAPSIS":"538.580","REV_AT_EPOCH":"6436","BSTAR":"0.00097845000000"}];
